{
  "norad_id": 43477,
  "name": "GRACE-FO 2",
  "history": [
    {
      "epoch": "2026-03-28T22:25:18.572736Z",
      "apogee_km": 462.3255281442389,
      "perigee_km": 443.8111855138395,
      "latitude_deg": -7.544688533820425e-05,
      "longitude_deg": 46.29284467788144,
      "height_km": 453.091147880278,
      "semi_major_axis_km": 6831.2053568290385,
      "eccentricity": 0.00135513,
      "inclination_deg": 88.9929,
      "raan_deg": 208.9678,
      "arg_perigee_deg": 70.001,
      "mean_anomaly_deg": 290.2702,
      "mean_motion_rev_day": 15.37647372
    },
    {
      "epoch": "2026-03-29T04:40:10.286400Z",
      "apogee_km": 462.2995911858761,
      "perigee_km": 443.80755830004637,
      "latitude_deg": 5.113982773369245e-05,
      "longitude_deg": -47.715010485457164,
      "height_km": 452.96081694118845,
      "semi_major_axis_km": 6831.190574742961,
      "eccentricity": 0.0013535,
      "inclination_deg": 88.993,
      "raan_deg": 208.932,
      "arg_perigee_deg": 69.2105,
      "mean_anomaly_deg": 291.0599,
      "mean_motion_rev_day": 15.37652363
    },
    {
      "epoch": "2026-03-30T04:05:53.794464Z",
      "apogee_km": 462.20499748864677,
      "perigee_km": 443.82919297247736,
      "latitude_deg": -5.075488978987226e-05,
      "longitude_deg": -40.24247992452465,
      "height_km": 452.5128375890012,
      "semi_major_axis_km": 6831.154095230562,
      "eccentricity": 0.001345,
      "inclination_deg": 88.9932,
      "raan_deg": 208.798,
      "arg_perigee_deg": 66.2917,
      "mean_anomaly_deg": 293.9747,
      "mean_motion_rev_day": 15.3766468
    },
    {
      "epoch": "2026-03-30T05:39:36.674496Z",
      "apogee_km": 462.1944706944023,
      "perigee_km": 443.8328841655248,
      "latitude_deg": 6.304664619460377e-05,
      "longitude_deg": -63.74419007097989,
      "height_km": 452.4715678427332,
      "semi_major_axis_km": 6831.150677429963,
      "eccentricity": 0.00134396,
      "inclination_deg": 88.9933,
      "raan_deg": 208.7891,
      "arg_perigee_deg": 66.0134,
      "mean_anomaly_deg": 294.2527,
      "mean_motion_rev_day": 15.37665834
    },
    {
      "epoch": "2026-03-30T15:01:53.844096Z",
      "apogee_km": 462.15854617635796,
      "perigee_km": 443.8349862072746,
      "latitude_deg": 1.1269195909021605e-05,
      "longitude_deg": 155.24569827475455,
      "height_km": 452.286806118407,
      "semi_major_axis_km": 6831.133766191816,
      "eccentricity": 0.00134118,
      "inclination_deg": 88.9935,
      "raan_deg": 208.7354,
      "arg_perigee_deg": 64.8028,
      "mean_anomaly_deg": 295.4616,
      "mean_motion_rev_day": 15.37671544
    },
    {
      "epoch": "2026-03-30T21:16:45.227712Z",
      "apogee_km": 462.13064837372985,
      "perigee_km": 443.84304672146027,
      "latitude_deg": 1.2355552853294562e-05,
      "longitude_deg": 61.239320110321955,
      "height_km": 452.1698105431308,
      "semi_major_axis_km": 6831.123847547595,
      "eccentricity": 0.00133855,
      "inclination_deg": 88.9936,
      "raan_deg": 208.6997,
      "arg_perigee_deg": 64.0035,
      "mean_anomaly_deg": 296.2597,
      "mean_motion_rev_day": 15.37674893
    }
  ]
}